NORAD_CAT_ID,OBJECT_NAME,OBJECT_TYPE,EPOCH,MEAN_MOTION,ECCENTRICITY,INCLINATION,RA_OF_ASC_NODE,ARG_OF_PERICENTER,MEAN_ANOMALY,BSTAR,MEAN_MOTION_DOT,MEAN_MOTION_DDOT,TLE_LINE0,TLE_LINE1,TLE_LINE2,SEMIMAJOR_AXIS,PERIOD,APOGEE,PERIGEE,DECAYED
52483.0,STARLINK-3875,PAYLOAD,2024-03-11 08:11:56,15.08843042,0.0001546,53.2158,78.802,90.2412,269.8757,0.00015745,2.219e-05,0.0,0 STARLINK-3875,1 52483U 22049AJ  24071.34162101  .00002219  00000-0  15745-3 0  9990,2 52483  53.2158  78.8020 0001546  90.2412 269.8757 15.08843042103673,6917.871,95.437,540.806,538.667,0.0
52483.0,STARLINK-3875,PAYLOAD,2024-03-12 09:38:06,15.08839467,0.0001838,53.2182,74.0396,94.2893,265.8309,4.3299e-05,4.01e-06,0.0,0 STARLINK-3875,1 52483U 22049AJ  24072.40146362  .00000401  00000-0  43299-4 0  9996,2 52483  53.2182  74.0396 0001838  94.2893 265.8309 15.08839467102758,6917.882,95.438,541.019,538.476,0.0
52483.0,STARLINK-3875,PAYLOAD,2024-03-13 06:18:07,15.08842367,0.0001519,53.2167,70.175,100.8651,259.2512,7.0835e-05,8.4e-06,0.0,0 STARLINK-3875,1 52483U 22049AJ  24073.26258131  .00000840  00000-0  70835-4 0  9992,2 52483  53.2167  70.1750 0001519 100.8651 259.2512 15.08842367103964,6917.873,95.437,540.789,538.687,0.0
52483.0,STARLINK-3875,PAYLOAD,2024-03-14 06:08:54,15.08842415,0.0001563,53.2166,65.7169,91.7947,268.3224,0.00019141,2.76e-05,0.0,0 STARLINK-3875,1 52483U 22049AJ  24074.25618309  .00002760  00000-0  19141-3 0  9994,2 52483  53.2166  65.7169 0001563  91.7947 268.3224 15.08842415103035,6917.873,95.437,540.819,538.657,0.0
52483.0,STARLINK-3875,PAYLOAD,2024-03-14 09:19:40,15.08844757,0.0001461,53.2163,65.1202,88.538,271.578,0.00014939,2.091e-05,0.0,0 STARLINK-3875,1 52483U 22049AJ  24074.38866134  .00002091  00000-0  14939-3 0  9996,2 52483  53.2163  65.1202 0001461  88.5380 271.5780 15.08844757104132,6917.866,95.437,540.742,538.72,0.0
52483.0,STARLINK-3875,PAYLOAD,2024-03-15 04:24:18,15.08836997,0.0001375,53.216,61.55,86.1273,273.9876,2.1237e-05,5e-07,0.0,0 STARLINK-3875,1 52483U 22049AJ  24075.18354518  .00000050  00000-0  21237-4 0  9996,2 52483  53.2160  61.5500 0001375  86.1273 273.9876 15.08836997103171,6917.89,95.438,540.706,538.803,0.0
52483.0,STARLINK-3875,PAYLOAD,2024-03-16 07:25:51,15.08837234,0.0001369,53.217,56.495,86.6746,273.4403,4.2091e-05,3.82e-06,0.0,0 STARLINK-3875,1 52483U 22049AJ  24076.30962889  .00000382  00000-0  42091-4 0  9996,2 52483  53.2170  56.4950 0001369  86.6746 273.4403 15.08837234103342,6917.889,95.438,540.701,538.807,0.0
52483.0,STARLINK-3875,PAYLOAD,2024-03-17 04:05:54,15.08822309,0.0001536,53.2188,52.634,103.0654,257.051,-1.0163e-05,-4.5e-06,0.0,0 STARLINK-3875,1 52483U 22049AJ  24077.17076601 -.00000450  00000-0 -10163-4 0  9993,2 52483  53.2188  52.6340 0001536 103.0654 257.0510 15.08822309103478,6917.934,95.439,540.862,538.737,0.0
52483.0,STARLINK-3875,PAYLOAD,2024-03-17 07:16:40,15.08826973,0.0001486,53.2186,52.0355,93.4951,266.6212,3.0173e-05,1.92e-06,0.0,0 STARLINK-3875,1 52483U 22049AJ  24077.30324333  .00000192  00000-0  30173-4 0  9990,2 52483  53.2186  52.0355 0001486  93.4951 266.6212 15.08826973104570,6917.92,95.438,540.813,538.757,0.0
52483.0,STARLINK-3875,PAYLOAD,2024-03-17 21:35:07,15.0883753,0.0001383,53.2187,49.3554,102.1362,257.9785,9.5155e-05,1.227e-05,0.0,0 STARLINK-3875,1 52483U 22049AJ  24077.89939729  .00001227  00000-0  95155-4 0  9996,2 52483  53.2187  49.3554 0001383 102.1362 257.9785 15.08837530103580,6917.888,95.438,540.71,538.796,0.0
52483.0,STARLINK-3875,PAYLOAD,2024-03-18 03:56:39,15.08847024,0.0001541,53.2189,48.1728,100.9724,259.1442,0.00017547,2.506e-05,0.0,0 STARLINK-3875,1 52483U 22049AJ  24078.16435019  .00002506  00000-0  17547-3 0  9999,2 52483  53.2189  48.1728 0001541 100.9724 259.1442 15.08847024103624,6917.859,95.437,540.79,538.658,0.0
52483.0,STARLINK-3875,PAYLOAD,2024-03-18 05:32:02,15.08848706,0.0001432,53.2189,47.8752,85.5387,274.5769,0.00019416,2.804e-05,0.0,0 STARLINK-3875,1 52483U 22049AJ  24078.23058973  .00002804  00000-0  19416-3 0  9995,2 52483  53.2189  47.8752 0001432  85.5387 274.5769 15.08848706104711,6917.854,95.437,540.709,538.728,0.0
52483.0,STARLINK-3875,PAYLOAD,2024-03-18 21:25:54,15.08854112,0.0001434,53.2175,44.9026,83.3925,276.723,0.00019243,2.777e-05,0.0,0 STARLINK-3875,1 52483U 22049AJ  24078.89298875  .00002777  00000-0  19243-3 0  9991,2 52483  53.2175  44.9026 0001434  83.3925 276.7230 15.08854112104810,6917.837,95.437,540.694,538.71,0.0
52483.0,STARLINK-3875,PAYLOAD,2024-03-19 03:47:26,15.08850631,0.0001453,53.2177,43.7116,82.9235,277.1922,0.000147,2.053e-05,0.0,0 STARLINK-3875,1 52483U 22049AJ  24079.15795015  .00002053  00000-0  14700-3 0  9999,2 52483  53.2177  43.7116 0001453  82.9235 277.1922 15.08850631103778,6917.848,95.437,540.718,538.708,0.0
52483.0,STARLINK-3875,PAYLOAD,2024-03-19 06:58:12,15.08853271,0.0001449,53.2177,43.1166,84.3088,275.807,0.00017951,2.571e-05,0.0,0 STARLINK-3875,1 52483U 22049AJ  24079.29042801  .00002571  00000-0  17951-3 0  9998,2 52483  53.2177  43.1166 0001449  84.3088 275.8070 15.08853271104878,6917.84,95.437,540.707,538.702,0.0
52483.0,STARLINK-3875,PAYLOAD,2024-03-20 06:48:59,15.0885263,0.0001451,53.2174,38.6543,93.1301,266.9857,6.8656e-05,8.05e-06,0.0,0 STARLINK-3875,1 52483U 22049AJ  24080.28402276  .00000805  00000-0  68656-4 0  9992,2 52483  53.2174  38.6543 0001451  93.1301 266.9857 15.08852630103941,6917.842,95.437,540.711,538.703,0.0
52483.0,STARLINK-3875,PAYLOAD,2024-03-21 03:29:01,15.08805545,0.0001476,53.2186,34.7858,105.7367,254.3788,0.00043456,6.628e-05,0.0,0 STARLINK-3875,1 52483U 22049AJ  24081.14516051  .00006628  00000-0  43456-3 0  9994,2 52483  53.2186  34.7858 0001476 105.7367 254.3788 15.08805545104071,6917.986,95.44,540.872,538.83,0.0
52483.0,STARLINK-3875,PAYLOAD,2024-03-21 20:58:15,15.08841999,0.0001265,53.218,31.5211,97.6037,262.5099,5.8841e-05,6.49e-06,0.0,0 STARLINK-3875,1 52483U 22049AJ  24081.87378712  .00000649  00000-0  58841-4 0  9996,2 52483  53.2180  31.5211 0001265  97.6037 262.5099 15.08841999104183,6917.874,95.437,540.614,538.864,0.0
52483.0,STARLINK-3875,PAYLOAD,2024-03-22 06:30:33,15.08851762,0.0001618,53.2191,29.7322,119.7939,240.3214,9.8421e-05,1.279e-05,0.0,0 STARLINK-3875,1 52483U 22049AJ  24082.27121782  .00001279  00000-0  98421-4 0  9992,2 52483  53.2191  29.7322 0001618 119.7939 240.3214 15.08851762104245,6917.844,95.437,540.829,538.59,0.0
52483.0,STARLINK-3875,PAYLOAD,2024-03-22 20:49:02,15.08832116,0.0001476,53.2184,27.0566,91.6065,268.5096,7.144e-05,8.49e-06,0.0,0 STARLINK-3875,1 52483U 22049AJ  24082.86739454  .00000849  00000-0  71440-4 0  9992,2 52483  53.2184  27.0566 0001476  91.6065 268.5096 15.08832116104330,6917.904,95.438,540.791,538.748,0.0
52483.0,STARLINK-3875,PAYLOAD,2024-03-23 03:10:36,15.08817245,0.0001268,53.218,25.8704,86.123,273.9907,-0.00019067,-3.319e-05,0.0,0 STARLINK-3875,1 52483U 22049AJ  24083.13236375 -.00003319  00000-0 -19067-3 0  9990,2 52483  53.2180  25.8704 0001268  86.1230 273.9907 15.08817245104379,6917.95,95.439,540.692,538.938,0.0
52483.0,STARLINK-3875,PAYLOAD,2024-03-23 06:21:22,15.08818508,0.0001244,53.2178,25.2723,85.5401,274.5733,-0.00015591,-2.767e-05,0.0,0 STARLINK-3875,1 52483U 22049AJ  24083.26484450 -.00002767  00000-0 -15591-3 0  9997,2 52483  53.2178  25.2723 0001244  85.5401 274.5733 15.08818508105477,6917.946,95.439,540.672,538.95,0.0
52483.0,STARLINK-3875,PAYLOAD,2024-03-24 03:01:21,15.08862052,0.0001312,53.2185,21.4058,105.7893,254.3244,0.00037387,5.671e-05,0.0,0 STARLINK-3875,1 52483U 22049AJ  24084.12594351  .00005671  00000-0  37387-3 0  9997,2 52483  53.2185  21.4058 0001312 105.7893 254.3244 15.08862052104521,6917.813,95.436,540.586,538.77,0.0
52483.0,STARLINK-3875,PAYLOAD,2024-03-24 18:55:13,15.08851246,0.0001345,53.2192,18.4404,116.6684,243.4446,0.00036177,5.476e-05,0.0,0 STARLINK-3875,1 52483U 22049AJ  24084.78834792  .00005476  00000-0  36177-3 0  9994,2 52483  53.2192  18.4404 0001345 116.6684 243.4446 15.08851246104622,6917.846,95.437,540.641,538.781,0.0
52483.0,STARLINK-3875,PAYLOAD,2024-03-25 04:27:32,15.08840429,0.0001529,53.218,16.6502,101.8256,258.2908,0.00010573,1.395e-05,0.0,0 STARLINK-3875,1 52483U 22049AJ  24085.18579435  .00001395  00000-0  10573-3 0  9997,2 52483  53.2180  16.6502 0001529 101.8256 258.2908 15.08840429104687,6917.879,95.438,540.802,538.686,0.0
52483.0,STARLINK-3875,PAYLOAD,2024-03-25 12:24:27,15.0885588,0.000179,53.2174,15.1672,67.4102,292.708,0.00028736,4.29e-05,0.0,0 STARLINK-3875,1 52483U 22049AJ  24085.51698688  .00004290  00000-0  28736-3 0  9993,2 52483  53.2174  15.1672 0001790  67.4102 292.7080 15.08855880104736,6917.832,95.437,540.935,538.459,0.0
52483.0,STARLINK-3875,PAYLOAD,2024-03-26 04:18:21,15.08813543,0.0001821,53.2178,12.1925,79.6818,280.438,-0.0004734,-7.809e-05,0.0,0 STARLINK-3875,1 52483U 22049AJ  24086.17940994 -.00007809  00000-0 -47340-3 0  9999,2 52483  53.2178  12.1925 0001821  79.6818 280.4380 15.08813543104830,6917.961,95.439,541.086,538.566,0.0
52483.0,STARLINK-3875,PAYLOAD,2024-03-26 12:15:17,15.08811862,0.0001802,53.2175,10.7068,79.2098,280.9097,-0.00028103,-4.754e-05,0.0,0 STARLINK-3875,1 52483U 22049AJ  24086.51061704 -.00004754  00000-0 -28103-3 0  9992,2 52483  53.2175  10.7068 0001802  79.2098 280.9097 15.08811862105961,6917.966,95.439,541.078,538.585,0.0
52483.0,STARLINK-3875,PAYLOAD,2024-03-27 00:58:20,15.08860381,0.0002622,53.2178,8.3252,39.6827,320.4356,0.00061659,9.544e-05,0.0,0 STARLINK-3875,1 52483U 22049AJ  24087.04051177  .00009544  00000-0  61659-3 0  9997,2 52483  53.2178   8.3252 0002622  39.6827 320.4356 15.08860381104960,6917.818,95.436,541.497,537.869,0.0
52483.0,STARLINK-3875,PAYLOAD,2024-03-27 12:06:01,15.08856766,0.0001882,53.2179,6.2439,83.5085,276.6122,0.00028433,4.242e-05,0.0,0 STARLINK-3875,1 52483U 22049AJ  24087.50418424  .00004242  00000-0  28433-3 0  9993,2 52483  53.2179   6.2439 0001882  83.5085 276.6122 15.08856766106110,6917.829,95.436,540.996,538.392,0.0
